     2              NAVIGATION DATA                         RINEX VERSION / TYPE
CCRINEXN V1.6.0 UX  CDDIS               30-JUN-15 17:31     PGM / RUN BY / DATE 
IGS BROADCAST EPHEMERIS FILE                                COMMENT             
    0.8382D-08  0.2235D-07 -0.5960D-07 -0.1192D-06          ION ALPHA           
    0.9421D+05  0.1311D+06 -0.6554D+05 -0.5898D+06          ION BETA            
   -0.279396772385D-08-0.266453525910D-14   319488     1851 DELTA-UTC: A0,A1,T,W
    16                                                      LEAP SECONDS        
                                                            END OF HEADER       
15 15  6 29 20  0  0.0-0.257720705122D-03-0.216004991671D-11 0.000000000000D+00
    0.400000000000D+02 0.457500000000D+02 0.478984237330D-08 0.200540679432D+01
    0.238791108131D-05 0.719356560148D-02 0.109840184450D-04 0.515367198372D+04
    0.158400000000D+06-0.949949026108D-07-0.513617879001D+00 0.298023223877D-07
    0.933221213529D+00 0.154468750000D+03 0.390253866794D+00-0.806569311135D-08
   -0.359657838335D-09 0.100000000000D+01 0.185100000000D+04 0.000000000000D+00
    0.200000000000D+01 0.000000000000D+00-0.107102096081D-07 0.400000000000D+02
    0.151218000000D+06 0.400000000000D+01 0.000000000000D+00 0.000000000000D+00
16 15  6 29 20  0  0.0-0.113775953650D-03 0.397903932026D-11 0.000000000000D+00
    0.690000000000D+02-0.977500000000D+02 0.417838833236D-08-0.263826083980D+01
   -0.510551035404D-05 0.814299285412D-02 0.289641320705D-05 0.515357883263D+04
    0.158400000000D+06-0.856816768646D-07 0.169533292197D+01-0.135973095894D-06
    0.990133425706D+00 0.342656250000D+03 0.319175698058D+00-0.804676375144D-08
   -0.194293807403D-09 0.000000000000D+00 0.185100000000D+04 0.000000000000D+00
    0.200000000000D+01 0.000000000000D+00-0.102445483208D-07 0.690000000000D+02
    0.151200000000D+06 0.400000000000D+01 0.000000000000D+00 0.000000000000D+00
17 15  6 29 20  0  0.0-0.178046524525D-03-0.170530256582D-11 0.000000000000D+00
    0.260000000000D+02-0.908437500000D+02 0.399980946526D-08 0.267796285213D+01
   -0.469945371151D-05 0.101342317648D-01 0.105779618025D-04 0.515379057121D+04
    0.158400000000D+06 0.447034835815D-07 0.272159377966D+01-0.163912773132D-06
    0.973162370542D+00 0.179062500000D+03-0.200904659155D+01-0.749852662945D-08
    0.500020827874D-10 0.100000000000D+01 0.185100000000D+04 0.000000000000D+00
    0.200000000000D+01 0.000000000000D+00-0.107102096081D-07 0.260000000000D+02
    0.151218000000D+06 0.400000000000D+01 0.000000000000D+00 0.000000000000D+00
18 15  6 29 20  0  0.0 0.413293018937D-03 0.306954461848D-11 0.000000000000D+00
    0.340000000000D+02-0.231562500000D+02 0.547879964257D-08-0.205907835768D+01
   -0.119954347610D-05 0.163382863393D-01 0.565499067307D-05 0.515360429764D+04
    0.158400000000D+06 0.273808836937D-06-0.153341460348D+01-0.670552253723D-07
    0.924560732649D+00 0.249843750000D+03-0.195137634789D+01-0.820712757409D-08
   -0.362872257943D-09 0.000000000000D+00 0.185100000000D+04 0.000000000000D+00
    0.200000000000D+01 0.000000000000D+00-0.111758708954D-07 0.340000000000D+02
    0.151200000000D+06 0.400000000000D+01 0.000000000000D+00 0.000000000000D+00
19 15  6 29 20  0  0.0-0.514645595103D-03-0.102318153950D-11 0.000000000000D+00
    0.990000000000D+02-0.983750000000D+02 0.410695678552D-08 0.187965828416D+01
   -0.492297112942D-05 0.115327144740D-01 0.118110328913D-04 0.515375420189D+04
    0.158400000000D+06-0.309199094772D-06 0.277106859385D+01 0.121071934700D-06
    0.970254585329D+00 0.160812500000D+03 0.570186981296D+00-0.774889420112D-08
    0.169292766009D-09 0.000000000000D+00 0.185100000000D+04 0.000000000000D+00
    0.280000000000D+01 0.000000000000D+00-0.153668224812D-07 0.990000000000D+02
    0.157200000000D+06 0.400000000000D+01 0.000000000000D+00 0.000000000000D+00
20 15  6 29 20  0  0.0 0.334140844643D-03 0.329691829393D-11 0.000000000000D+00
    0.110000000000D+03-0.267812500000D+02 0.562416284039D-08 0.206399231267D+01
   -0.164285302162D-05 0.478197936900D-02 0.549294054508D-05 0.515359533119D+04
    0.158400000000D+06 0.931322574616D-08-0.158573636598D+01-0.707805156708D-07
    0.925749236554D+00 0.256187500000D+03 0.117040588600D+01-0.852106922245D-08
   -0.423231915022D-09 0.100000000000D+01 0.185100000000D+04 0.000000000000D+00
    0.280000000000D+01 0.000000000000D+00-0.838190317154D-08 0.110000000000D+03
    0.151218000000D+06 0.400000000000D+01 0.000000000000D+00 0.000000000000D+00
21 15  6 29 20  0  0.0-0.459552276880D-03-0.329691829393D-11 0.000000000000D+00
    0.240000000000D+02 0.268750000000D+02 0.544772691969D-08-0.983341142414D+00
    0.161677598953D-05 0.224766415777D-01 0.733323395252D-05 0.515379389381D+04
    0.158400000000D+06-0.119209289551D-06-0.257687080654D+01 0.519677996635D-06
    0.934228852485D+00 0.225531250000D+03-0.189762934477D+01-0.866821820894D-08
    0.363229415677D-09 0.000000000000D+00 0.185100000000D+04 0.000000000000D+00
    0.200000000000D+01 0.000000000000D+00-0.116415321827D-07 0.240000000000D+02
    0.151200000000D+06 0.400000000000D+01 0.000000000000D+00 0.000000000000D+00
22 15  6 29 20  0  0.0 0.366031657904D-03 0.397903932026D-11 0.000000000000D+00
    0.580000000000D+02-0.247812500000D+02 0.557523223080D-08-0.252046872414D+01
   -0.130757689476D-05 0.802589824889D-02 0.586546957493D-05 0.515367889786D+04
    0.158400000000D+06 0.651925802231D-07-0.153230660834D+01-0.391155481338D-07
    0.922377043609D+00 0.245625000000D+03-0.204052108531D+01-0.835606234925D-08
   -0.389301930274D-09 0.000000000000D+00 0.185100000000D+04 0.000000000000D+00
    0.200000000000D+01 0.000000000000D+00-0.176951289177D-07 0.580000000000D+02
    0.151200000000D+06 0.400000000000D+01 0.000000000000D+00 0.000000000000D+00
23 15  6 29 20  0  0.0-0.117929652333D-03-0.238742359215D-11 0.000000000000D+00
    0.420000000000D+02 0.517187500000D+02 0.434089510142D-08 0.153000893604D+01
    0.286288559437D-05 0.103539035190D-01 0.124275684357D-04 0.515360826111D+04
    0.158400000000D+06-0.158324837685D-06-0.460926463437D+00 0.484287738800D-07
    0.948428710708D+00 0.134468750000D+03-0.266122523334D+01-0.790318634229D-08
   -0.453233164695D-09 0.000000000000D+00 0.185100000000D+04 0.000000000000D+00
    0.200000000000D+01 0.000000000000D+00-0.200234353542D-07 0.420000000000D+02
    0.157230000000D+06 0.400000000000D+01 0.000000000000D+00 0.000000000000D+00
24 15  6 29 20  0  0.0-0.469852238894D-06-0.568434188608D-12 0.000000000000D+00
    0.189000000000D+03 0.110250000000D+03 0.471948229967D-08 0.787357285734D+00
    0.563077628613D-05 0.325349881314D-02 0.411644577980D-05 0.515367137718D+04
    0.158400000000D+06 0.316649675369D-07 0.565393117247D+00 0.856816768646D-07
    0.953359003572D+00 0.298343750000D+03 0.355525258060D+00-0.833820446254D-08
    0.297512392585D-09 0.100000000000D+01 0.185100000000D+04 0.000000000000D+00
    0.280000000000D+01 0.000000000000D+00 0.232830643654D-08 0.189000000000D+03
    0.156528000000D+06 0.400000000000D+01 0.000000000000D+00 0.000000000000D+00
25 15  6 29 20  0  0.0-0.734487548471D-05-0.432009983342D-11 0.000000000000D+00
    0.930000000000D+02-0.733125000000D+02 0.446732893933D-08-0.125841516200D+01
   -0.371783971786D-05 0.466548569966D-02 0.238604843616D-05 0.515366076279D+04
    0.158400000000D+06 0.447034835815D-07 0.162959707258D+01 0.260770320892D-07
    0.978062151323D+00 0.341343750000D+03 0.751662147505D+00-0.824748639806D-08
   -0.110361739867D-09 0.000000000000D+00 0.185100000000D+04 0.000000000000D+00
    0.200000000000D+01 0.000000000000D+00 0.558793544769D-08 0.930000000000D+02
    0.151200000000D+06 0.400000000000D+01 0.000000000000D+00 0.000000000000D+00
26 15  6 29 20  0  0.0-0.287266448140D-05-0.375166564481D-11 0.000000000000D+00
    0.860000000000D+02-0.808750000000D+02 0.485841665827D-08-0.311568706910D+01
   -0.438466668129D-05 0.327292829752D-03 0.200048089027D-05 0.515359444046D+04
    0.158400000000D+06 0.111758708954D-07 0.162643674236D+01-0.558793544769D-08
    0.960174140570D+00 0.341812500000D+03 0.128565902248D+01-0.850071123160D-08
   -0.180007498035D-09 0.000000000000D+00 0.185100000000D+04 0.000000000000D+00
    0.200000000000D+01 0.000000000000D+00 0.745058059692D-08 0.860000000000D+02
    0.151200000000D+06 0.400000000000D+01 0.000000000000D+00 0.000000000000D+00
28 15  6 29 20  0  0.0 0.450224615634D-03 0.261479726760D-11 0.000000000000D+00
    0.630000000000D+02-0.886562500000D+02 0.406695511929D-08-0.274292598819D+01
   -0.461190938950D-05 0.195400961675D-01 0.213459134102D-05 0.515369759750D+04
    0.158400000000D+06 0.316649675369D-06 0.170065161812D+01 0.856816768646D-07
    0.988757952092D+00 0.347968750000D+03-0.166225222169D+01-0.776639493009D-08
   -0.607168148133D-10 0.100000000000D+01 0.185100000000D+04 0.000000000000D+00
    0.200000000000D+01 0.000000000000D+00-0.111758708954D-07 0.630000000000D+02
    0.151218000000D+06 0.400000000000D+01 0.000000000000D+00 0.000000000000D+00
29 15  6 29 20  0  0.0 0.619586557150D-03 0.216004991671D-11 0.000000000000D+00
    0.350000000000D+02-0.838125000000D+02 0.408945605654D-08-0.102798197642D+01
   -0.424869358540D-05 0.113896734547D-02 0.111944973469D-04 0.515374904060D+04
    0.158400000000D+06 0.279396772385D-07 0.273098552355D+01-0.260770320892D-07
    0.974023163243D+00 0.170187500000D+03-0.530165464731D+00-0.775568019807D-08
    0.160720980388D-09 0.000000000000D+00 0.185100000000D+04 0.000000000000D+00
    0.200000000000D+01 0.000000000000D+00-0.977888703346D-08 0.350000000000D+02
    0.151200000000D+06 0.400000000000D+01 0.000000000000D+00 0.000000000000D+00
